CCSDS_OMM_VERS = 2.0
CREATION_DATE  = 
ORIGINATOR     = 

OBJECT_NAME    = SL-3 R/B
OBJECT_ID      = 1982-079B
CENTER_NAME    = EARTH
REF_FRAME      = TEME
TIME_SYSTEM    = UTC
MEAN_ELEMENT_THEORY = SGP/SGP4

EPOCH          = 2025-12-02T19:53:51.763776
MEAN_MOTION    = 15.23406857
ECCENTRICITY   = .002668
INCLINATION    = 81.1456
RA_OF_ASC_NODE = 307.3424
ARG_OF_PERICENTER = 130.8123
MEAN_ANOMALY   = 229.5429

EPHEMERIS_TYPE = 0
CLASSIFICATION_TYPE = U
NORAD_CAT_ID   = 13403
ELEMENT_SET_NO = 999
REV_AT_EPOCH   = 36294
BSTAR          = .2946E-3
MEAN_MOTION_DOT = .7106E-4
MEAN_MOTION_DDOT = 0

CCSDS_OMM_VERS = 2.0
CREATION_DATE  = 
ORIGINATOR     = 

OBJECT_NAME    = SL-14 R/B
OBJECT_ID      = 1982-092B
CENTER_NAME    = EARTH
REF_FRAME      = TEME
TIME_SYSTEM    = UTC
MEAN_ELEMENT_THEORY = SGP/SGP4

EPOCH          = 2025-12-02T18:51:45.241920
MEAN_MOTION    = 14.86538898
ECCENTRICITY   = .001883
INCLINATION    = 82.5688
RA_OF_ASC_NODE = 232.0199
ARG_OF_PERICENTER = 262.5630
MEAN_ANOMALY   = 159.7382

EPHEMERIS_TYPE = 0
CLASSIFICATION_TYPE = U
NORAD_CAT_ID   = 13553
ELEMENT_SET_NO = 999
REV_AT_EPOCH   = 31453
BSTAR          = .78363E-4
MEAN_MOTION_DOT = .72E-5
MEAN_MOTION_DDOT = 0

CCSDS_OMM_VERS = 2.0
CREATION_DATE  = 
ORIGINATOR     = 

OBJECT_NAME    = SL-3 R/B
OBJECT_ID      = 1983-010B
CENTER_NAME    = EARTH
REF_FRAME      = TEME
TIME_SYSTEM    = UTC
MEAN_ELEMENT_THEORY = SGP/SGP4

EPOCH          = 2025-12-02T20:26:31.314048
MEAN_MOTION    = 15.43049053
ECCENTRICITY   = .0017637
INCLINATION    = 81.1025
RA_OF_ASC_NODE = 120.6842
ARG_OF_PERICENTER = 25.3492
MEAN_ANOMALY   = 334.8612

EPHEMERIS_TYPE = 0
CLASSIFICATION_TYPE = U
NORAD_CAT_ID   = 13819
ELEMENT_SET_NO = 999
REV_AT_EPOCH   = 34299
BSTAR          = .38154E-3
MEAN_MOTION_DOT = .16978E-3
MEAN_MOTION_DDOT = 0

CCSDS_OMM_VERS = 2.0
CREATION_DATE  = 
ORIGINATOR     = 

OBJECT_NAME    = SL-3 R/B
OBJECT_ID      = 1983-075B
CENTER_NAME    = EARTH
REF_FRAME      = TEME
TIME_SYSTEM    = UTC
MEAN_ELEMENT_THEORY = SGP/SGP4

EPOCH          = 2025-12-02T19:40:29.777376
MEAN_MOTION    = 15.35823515
ECCENTRICITY   = .0021657
INCLINATION    = 97.6097
RA_OF_ASC_NODE = 332.9731
ARG_OF_PERICENTER = 211.8111
MEAN_ANOMALY   = 148.1825

EPHEMERIS_TYPE = 0
CLASSIFICATION_TYPE = U
NORAD_CAT_ID   = 14208
ELEMENT_SET_NO = 999
REV_AT_EPOCH   = 31527
BSTAR          = .38484E-3
MEAN_MOTION_DOT = .13438E-3
MEAN_MOTION_DDOT = 0

CCSDS_OMM_VERS = 2.0
CREATION_DATE  = 
ORIGINATOR     = 

OBJECT_NAME    = COSMOS 1536
OBJECT_ID      = 1984-013A
CENTER_NAME    = EARTH
REF_FRAME      = TEME
TIME_SYSTEM    = UTC
MEAN_ELEMENT_THEORY = SGP/SGP4

EPOCH          = 2025-12-02T21:09:35.608032
MEAN_MOTION    = 15.22349181
ECCENTRICITY   = .001323
INCLINATION    = 82.5465
RA_OF_ASC_NODE = 203.9388
ARG_OF_PERICENTER = 264.4231
MEAN_ANOMALY   = 95.5496

EPHEMERIS_TYPE = 0
CLASSIFICATION_TYPE = U
NORAD_CAT_ID   = 14699
ELEMENT_SET_NO = 999
REV_AT_EPOCH   = 25788
BSTAR          = .27943E-3
MEAN_MOTION_DOT = .6491E-4
MEAN_MOTION_DDOT = 0

CCSDS_OMM_VERS = 2.0
CREATION_DATE  = 
ORIGINATOR     = 

OBJECT_NAME    = SL-14 R/B
OBJECT_ID      = 1984-027B
CENTER_NAME    = EARTH
REF_FRAME      = TEME
TIME_SYSTEM    = UTC
MEAN_ELEMENT_THEORY = SGP/SGP4

EPOCH          = 2025-12-02T10:53:58.236864
MEAN_MOTION    = 14.85856489
ECCENTRICITY   = .0016575
INCLINATION    = 82.5409
RA_OF_ASC_NODE = 336.2030
ARG_OF_PERICENTER = 298.1069
MEAN_ANOMALY   = 61.8472

EPHEMERIS_TYPE = 0
CLASSIFICATION_TYPE = U
NORAD_CAT_ID   = 14820
ELEMENT_SET_NO = 999
REV_AT_EPOCH   = 23319
BSTAR          = .84743E-4
MEAN_MOTION_DOT = .763E-5
MEAN_MOTION_DDOT = 0

CCSDS_OMM_VERS = 2.0
CREATION_DATE  = 
ORIGINATOR     = 

OBJECT_NAME    = SL-8 R/B
OBJECT_ID      = 1985-006B
CENTER_NAME    = EARTH
REF_FRAME      = TEME
TIME_SYSTEM    = UTC
MEAN_ELEMENT_THEORY = SGP/SGP4

EPOCH          = 2025-12-02T17:46:50.883744
MEAN_MOTION    = 14.37711367
ECCENTRICITY   = .0018251
INCLINATION    = 74.0464
RA_OF_ASC_NODE = 79.5302
ARG_OF_PERICENTER = 14.3902
MEAN_ANOMALY   = 95.5450

EPHEMERIS_TYPE = 0
CLASSIFICATION_TYPE = U
NORAD_CAT_ID   = 15483
ELEMENT_SET_NO = 999
REV_AT_EPOCH   = 14009
BSTAR          = .13338E-3
MEAN_MOTION_DOT = .376E-5
MEAN_MOTION_DDOT = 0

CCSDS_OMM_VERS = 2.0
CREATION_DATE  = 
ORIGINATOR     = 

OBJECT_NAME    = SL-12 R/B(2)
OBJECT_ID      = 1985-042D
CENTER_NAME    = EARTH
REF_FRAME      = TEME
TIME_SYSTEM    = UTC
MEAN_ELEMENT_THEORY = SGP/SGP4

EPOCH          = 2025-12-02T08:15:16.231104
MEAN_MOTION    = 14.21946513
ECCENTRICITY   = .0037677
INCLINATION    = 71.1080
RA_OF_ASC_NODE = 293.3820
ARG_OF_PERICENTER = 276.6777
MEAN_ANOMALY   = 192.6825

EPHEMERIS_TYPE = 0
CLASSIFICATION_TYPE = U
NORAD_CAT_ID   = 15772
ELEMENT_SET_NO = 999
REV_AT_EPOCH   = 10055
BSTAR          = .71309E-4
MEAN_MOTION_DOT = .111E-5
MEAN_MOTION_DDOT = 0

CCSDS_OMM_VERS = 2.0
CREATION_DATE  = 
ORIGINATOR     = 

OBJECT_NAME    = SL-14 R/B
OBJECT_ID      = 1985-069B
CENTER_NAME    = EARTH
REF_FRAME      = TEME
TIME_SYSTEM    = UTC
MEAN_ELEMENT_THEORY = SGP/SGP4

EPOCH          = 2025-12-02T19:19:20.933760
MEAN_MOTION    = 14.86304267
ECCENTRICITY   = .0019503
INCLINATION    = 82.5257
RA_OF_ASC_NODE = 116.0421
ARG_OF_PERICENTER = 149.7077
MEAN_ANOMALY   = 210.5272

EPHEMERIS_TYPE = 0
CLASSIFICATION_TYPE = U
NORAD_CAT_ID   = 15945
ELEMENT_SET_NO = 999
REV_AT_EPOCH   = 15844
BSTAR          = .92733E-4
MEAN_MOTION_DOT = .843E-5
MEAN_MOTION_DDOT = 0

CCSDS_OMM_VERS = 2.0
CREATION_DATE  = 
ORIGINATOR     = 

OBJECT_NAME    = SL-16 R/B
OBJECT_ID      = 1985-097B
CENTER_NAME    = EARTH
REF_FRAME      = TEME
TIME_SYSTEM    = UTC
MEAN_ELEMENT_THEORY = SGP/SGP4

EPOCH          = 2025-12-02T18:34:59.648736
MEAN_MOTION    = 14.16581861
ECCENTRICITY   = .0006061
INCLINATION    = 71.0033
RA_OF_ASC_NODE = 344.5842
ARG_OF_PERICENTER = 26.8377
MEAN_ANOMALY   = 146.0331

EPHEMERIS_TYPE = 0
CLASSIFICATION_TYPE = U
NORAD_CAT_ID   = 16182
ELEMENT_SET_NO = 999
REV_AT_EPOCH   = 7350
BSTAR          = -.64515E-4
MEAN_MOTION_DOT = -.177E-5
MEAN_MOTION_DDOT = 0

CCSDS_OMM_VERS = 2.0
CREATION_DATE  = 
ORIGINATOR     = 

OBJECT_NAME    = SL-14 R/B
OBJECT_ID      = 1986-006B
CENTER_NAME    = EARTH
REF_FRAME      = TEME
TIME_SYSTEM    = UTC
MEAN_ELEMENT_THEORY = SGP/SGP4

EPOCH          = 2025-12-02T11:15:44.966880
MEAN_MOTION    = 14.86649529
ECCENTRICITY   = .007546
INCLINATION    = 82.5268
RA_OF_ASC_NODE = 351.2159
ARG_OF_PERICENTER = 234.3009
MEAN_ANOMALY   = 125.1171

EPHEMERIS_TYPE = 0
CLASSIFICATION_TYPE = U
NORAD_CAT_ID   = 16496
ELEMENT_SET_NO = 999
REV_AT_EPOCH   = 13476
BSTAR          = .10413E-3
MEAN_MOTION_DOT = .999E-5
MEAN_MOTION_DDOT = 0

CCSDS_OMM_VERS = 2.0
CREATION_DATE  = 
ORIGINATOR     = 

OBJECT_NAME    = COSMOS 1743
OBJECT_ID      = 1986-034A
CENTER_NAME    = EARTH
REF_FRAME      = TEME
TIME_SYSTEM    = UTC
MEAN_ELEMENT_THEORY = SGP/SGP4

EPOCH          = 2025-12-02T14:16:19.602048
MEAN_MOTION    = 15.51359030
ECCENTRICITY   = .0004972
INCLINATION    = 82.5347
RA_OF_ASC_NODE = 175.1229
ARG_OF_PERICENTER = 297.9917
MEAN_ANOMALY   = 62.0831

EPHEMERIS_TYPE = 0
CLASSIFICATION_TYPE = U
NORAD_CAT_ID   = 16719
ELEMENT_SET_NO = 999
REV_AT_EPOCH   = 16516
BSTAR          = .51653E-3
MEAN_MOTION_DOT = .30479E-3
MEAN_MOTION_DDOT = 0

