SL-3 R/B                
1 13403U 82079B   25336.82907134  .00007106  00000+0  29460-3 0  9997
2 13403  81.1456 307.3424 0026680 130.8123 229.5429 15.23406857362949
SL-14 R/B               
1 13553U 82092B   25336.78594030  .00000720  00000+0  78363-4 0  9992
2 13553  82.5688 232.0199 0018830 262.5630 159.7382 14.86538898314537
SL-3 R/B                
1 13819U 83010B   25336.85175132  .00016978  00000+0  38154-3 0  9999
2 13819  81.1025 120.6842 0017637  25.3492 334.8612 15.43049053342991
SL-3 R/B                
1 14208U 83075B   25336.81978909  .00013438  00000+0  38484-3 0  9996
2 14208  97.6097 332.9731 0021657 211.8111 148.1825 15.35823515315274
COSMOS 1536             
1 14699U 84013A   25336.88166213  .00006491  00000+0  27943-3 0  9996
2 14699  82.5465 203.9388 0013230 264.4231  95.5496 15.22349181257889
SL-14 R/B               
1 14820U 84027B   25336.45414626  .00000763  00000+0  84743-4 0  9992
2 14820  82.5409 336.2030 0016575 298.1069  61.8472 14.85856489233195
SL-8 R/B                
1 15483U 85006B   25336.74086671  .00000376  00000+0  13338-3 0  9994
2 15483  74.0464  79.5302 0018251  14.3902  95.5450 14.37711367140092
SL-12 R/B(2)            
1 15772U 85042D   25336.34393786  .00000111  00000+0  71309-4 0  9999
2 15772  71.1080 293.3820 0037677 276.6777 192.6825 14.21946513100550
SL-14 R/B               
1 15945U 85069B   25336.80510340  .00000843  00000+0  92733-4 0  9994
2 15945  82.5257 116.0421 0019503 149.7077 210.5272 14.86304267158445
SL-16 R/B               
1 16182U 85097B   25336.77430149 -.00000177  00000+0 -64515-4 0  9992
2 16182  71.0033 344.5842 0006061  26.8377 146.0331 14.16581861 73504
SL-14 R/B               
1 16496U 86006B   25336.46927045  .00000999  00000+0  10413-3 0  9990
2 16496  82.5268 351.2159 0075460 234.3009 125.1171 14.86649529134761
COSMOS 1743             
1 16719U 86034A   25336.59467132  .00030479  00000+0  51653-3 0  9996
2 16719  82.5347 175.1229 0004972 297.9917  62.0831 15.51359030165169
